{"type":"FeatureCollection","features":[{"type":"Feature","properties":{"CountryName":"Romania","Type of Animal":"Pigs"},"geometry":{"type":"Point","coordinates":[26.316931,44.214991]}},{"type":"Feature","properties":{"CountryName":"Romania","Type of Animal":"Pigs"},"geometry":{"type":"Point","coordinates":[26.506359,47.824319]}},{"type":"Feature","properties":{"CountryName":"Romania","Type of Animal":"Pigs"},"geometry":{"type":"Point","coordinates":[22.674592,44.6931004]}},{"type":"Feature","properties":{"CountryName":"Romania","Type of Animal":"Pigs"},"geometry":{"type":"Point","coordinates":[22.639161,47.702222]}},{"type":"Feature","properties":{"CountryName":"Romania","Type of Animal":"Pigs"},"geometry":{"type":"Point","coordinates":[21.608982,45.416312]}},{"type":"Feature","properties":{"CountryName":"Romania","Type of Animal":"Pigs"},"geometry":{"type":"Point","coordinates":[22.513624,44.394937]}},{"type":"Feature","properties":{"CountryName":"Romania","Type of Animal":"Pigs"},"geometry":{"type":"Point","coordinates":[24.589213,44.552845]}},{"type":"Feature","properties":{"CountryName":"Romania","Type of Animal":"Pigs"},"geometry":{"type":"Point","coordinates":[27.418614,46.853499]}},{"type":"Feature","properties":{"CountryName":"Romania","Type of Animal":"Pigs"},"geometry":{"type":"Point","coordinates":[26.253531,46.049152]}},{"type":"Feature","properties":{"CountryName":"Romania","Type of Animal":"Pigs"},"geometry":{"type":"Point","coordinates":[23.119749,47.894864]}},{"type":"Feature","properties":{"CountryName":"Romania","Type of Animal":"Pigs"},"geometry":{"type":"Point","coordinates":[24.964798,43.932123]}},{"type":"Feature","properties":{"CountryName":"Romania","Type of Animal":"Pigs"},"geometry":{"type":"Point","coordinates":[24.726871,44.120094]}},{"type":"Feature","properties":{"CountryName":"Romania","Type of Animal":"Pigs"},"geometry":{"type":"Point","coordinates":[23.151074,47.860987]}},{"type":"Feature","properties":{"CountryName":"Romania","Type of Animal":"Pigs"},"geometry":{"type":"Point","coordinates":[27.3894777,44.2139388]}},{"type":"Feature","properties":{"CountryName":"Romania","Type of Animal":"Pigs"},"geometry":{"type":"Point","coordinates":[27.042951,44.624728]}},{"type":"Feature","properties":{"CountryName":"Romania","Type of Animal":"Pigs"},"geometry":{"type":"Point","coordinates":[22.361813,47.557212]}},{"type":"Feature","properties":{"CountryName":"Romania","Type of Animal":"Pigs"},"geometry":{"type":"Point","coordinates":[28.8750422,45.1506144]}},{"type":"Feature","properties":{"CountryName":"Romania","Type of Animal":"Pigs"},"geometry":{"type":"Point","coordinates":[27.159888,45.643832]}},{"type":"Feature","properties":{"CountryName":"Romania","Type of Animal":"Pigs"},"geometry":{"type":"Point","coordinates":[21.798049,46.483234]}},{"type":"Feature","properties":{"CountryName":"Romania","Type of Animal":"Pigs"},"geometry":{"type":"Point","coordinates":[27.397641,45.166615]}},{"type":"Feature","properties":{"CountryName":"Romania","Type of Animal":"Pigs"},"geometry":{"type":"Point","coordinates":[26.201647,44.349297]}},{"type":"Feature","properties":{"CountryName":"Romania","Type of Animal":"Pigs"},"geometry":{"type":"Point","coordinates":[27.033687,44.618968]}},{"type":"Feature","properties":{"CountryName":"Romania","Type of Animal":"Pigs"},"geometry":{"type":"Point","coordinates":[22.641365,47.504989]}},{"type":"Feature","properties":{"CountryName":"Romania","Type of Animal":"Pigs"},"geometry":{"type":"Point","coordinates":[21.163727,45.622439]}},{"type":"Feature","properties":{"CountryName":"Romania","Type of Animal":"Pigs"},"geometry":{"type":"Point","coordinates":[24.205365,44.987121]}},{"type":"Feature","properties":{"CountryName":"Romania","Type of Animal":"Pigs"},"geometry":{"type":"Point","coordinates":[27.151311,45.629667]}},{"type":"Feature","properties":{"CountryName":"Romania","Type of Animal":"Pigs"},"geometry":{"type":"Point","coordinates":[21.619229,46.538017]}},{"type":"Feature","properties":{"CountryName":"Romania","Type of Animal":"Pigs"},"geometry":{"type":"Point","coordinates":[21.964154,47.173461]}},{"type":"Feature","properties":{"CountryName":"Romania","Type of Animal":"Pigs"},"geometry":{"type":"Point","coordinates":[26.92224,45.1017597]}},{"type":"Feature","properties":{"CountryName":"Romania","Type of Animal":"Pigs"},"geometry":{"type":"Point","coordinates":[26.917541,46.983729]}},{"type":"Feature","properties":{"CountryName":"Romania","Type of Animal":"Pigs"},"geometry":{"type":"Point","coordinates":[24.7685316,44.3764949]}},{"type":"Feature","properties":{"CountryName":"Romania","Type of Animal":"Pigs"},"geometry":{"type":"Point","coordinates":[21.103959,45.631051]}},{"type":"Feature","properties":{"CountryName":"Romania","Type of Animal":"Pigs"},"geometry":{"type":"Point","coordinates":[21.646396,46.619081]}},{"type":"Feature","properties":{"CountryName":"Romania","Type of Animal":"Pigs"},"geometry":{"type":"Point","coordinates":[27.819525,45.05276389]}},{"type":"Feature","properties":{"CountryName":"Romania","Type of Animal":"Pigs"},"geometry":{"type":"Point","coordinates":[26.872474,44.824375]}},{"type":"Feature","properties":{"CountryName":"Romania","Type of Animal":"Pigs"},"geometry":{"type":"Point","coordinates":[27.355967,44.414336]}},{"type":"Feature","properties":{"CountryName":"Romania","Type of Animal":"Pigs"},"geometry":{"type":"Point","coordinates":[21.5867614,45.0723992]}},{"type":"Feature","properties":{"CountryName":"Romania","Type of Animal":"Pigs"},"geometry":{"type":"Point","coordinates":[26.891774,47.022457]}},{"type":"Feature","properties":{"CountryName":"Romania","Type of Animal":"Pigs"},"geometry":{"type":"Point","coordinates":[20.886861,46.059841]}},{"type":"Feature","properties":{"CountryName":"Romania","Type of Animal":"Pigs"},"geometry":{"type":"Point","coordinates":[21.219098,46.300382]}},{"type":"Feature","properties":{"CountryName":"Romania","Type of Animal":"Pigs"},"geometry":{"type":"Point","coordinates":[26.951144,46.400992]}},{"type":"Feature","properties":{"CountryName":"Romania","Type of Animal":"Pigs"},"geometry":{"type":"Point","coordinates":[27.835068,45.038012]}},{"type":"Feature","properties":{"CountryName":"Romania","Type of Animal":"Pigs"},"geometry":{"type":"Point","coordinates":[26.737801,44.819455]}},{"type":"Feature","properties":{"CountryName":"Romania","Type of Animal":"Pigs"},"geometry":{"type":"Point","coordinates":[21.687559,45.089544]}},{"type":"Feature","properties":{"CountryName":"Romania","Type of Animal":"Pigs"},"geometry":{"type":"Point","coordinates":[27.072745,47.225596]}},{"type":"Feature","properties":{"CountryName":"Romania","Type of Animal":"Pigs"},"geometry":{"type":"Point","coordinates":[21.239861,45.286782]}},{"type":"Feature","properties":{"CountryName":"Romania","Type of Animal":"Pigs"},"geometry":{"type":"Point","coordinates":[23.8528418,44.7787279]}},{"type":"Feature","properties":{"CountryName":"Romania","Type of Animal":"Pigs"},"geometry":{"type":"Point","coordinates":[21.630898,46.613321]}},{"type":"Feature","properties":{"CountryName":"Romania","Type of Animal":"Pigs"},"geometry":{"type":"Point","coordinates":[26.752494,44.821831]}},{"type":"Feature","properties":{"CountryName":"Romania","Type of Animal":"Pigs"},"geometry":{"type":"Point","coordinates":[21.550954,45.040275]}},{"type":"Feature","properties":{"CountryName":"Romania","Type of Animal":"Pigs"},"geometry":{"type":"Point","coordinates":[27.170745,47.375415]}},{"type":"Feature","properties":{"CountryName":"Romania","Type of Animal":"Pigs"},"geometry":{"type":"Point","coordinates":[21.248375,45.451833]}},{"type":"Feature","properties":{"CountryName":"Romania","Type of Animal":"Pigs"},"geometry":{"type":"Point","coordinates":[25.252163,44.559459]}},{"type":"Feature","properties":{"CountryName":"Romania","Type of Animal":"Pigs"},"geometry":{"type":"Point","coordinates":[21.977423,46.453143]}},{"type":"Feature","properties":{"CountryName":"Romania","Type of Animal":"Pigs"},"geometry":{"type":"Point","coordinates":[26.7889532,44.9108742]}},{"type":"Feature","properties":{"CountryName":"Romania","Type of Animal":"Pigs"},"geometry":{"type":"Point","coordinates":[21.587911,45.351511]}},{"type":"Feature","properties":{"CountryName":"Romania","Type of Animal":"Pigs"},"geometry":{"type":"Point","coordinates":[27.301321,47.487161]}},{"type":"Feature","properties":{"CountryName":"Romania","Type of Animal":"Pigs"},"geometry":{"type":"Point","coordinates":[20.566166,46.006877]}},{"type":"Feature","properties":{"CountryName":"Romania","Type of Animal":"Pigs"},"geometry":{"type":"Point","coordinates":[25.251329,44.558213]}},{"type":"Feature","properties":{"CountryName":"Romania","Type of Animal":"Pigs"},"geometry":{"type":"Point","coordinates":[21.820854,46.520839]}},{"type":"Feature","properties":{"CountryName":"Romania","Type of Animal":"Pigs"},"geometry":{"type":"Point","coordinates":[27.053763,47.763948]}},{"type":"Feature","properties":{"CountryName":"Romania","Type of Animal":"Pigs"},"geometry":{"type":"Point","coordinates":[27.300825,47.488228]}},{"type":"Feature","properties":{"CountryName":"Romania","Type of Animal":"Pigs"},"geometry":{"type":"Point","coordinates":[23.176491,47.459261]}},{"type":"Feature","properties":{"CountryName":"Romania","Type of Animal":"Pigs"},"geometry":{"type":"Point","coordinates":[24.411172,45.738784]}},{"type":"Feature","properties":{"CountryName":"Romania","Type of Animal":"Pigs"},"geometry":{"type":"Point","coordinates":[20.562295,45.991114]}},{"type":"Feature","properties":{"CountryName":"Romania","Type of Animal":"Pigs"},"geometry":{"type":"Point","coordinates":[21.771458,46.550836]}},{"type":"Feature","properties":{"CountryName":"Romania","Type of Animal":"Pigs"},"geometry":{"type":"Point","coordinates":[23.356981,47.656632]}},{"type":"Feature","properties":{"CountryName":"Romania","Type of Animal":"Pigs"},"geometry":{"type":"Point","coordinates":[26.923404,46.848811]}},{"type":"Feature","properties":{"CountryName":"Romania","Type of Animal":"Pigs"},"geometry":{"type":"Point","coordinates":[24.419294,44.307661]}},{"type":"Feature","properties":{"CountryName":"Romania","Type of Animal":"Pigs"},"geometry":{"type":"Point","coordinates":[24.259439,45.695478]}},{"type":"Feature","properties":{"CountryName":"Romania","Type of Animal":"Pigs"},"geometry":{"type":"Point","coordinates":[21.444854,45.981481]}},{"type":"Feature","properties":{"CountryName":"Romania","Type of Animal":"Pigs"},"geometry":{"type":"Point","coordinates":[25.157261,43.776951]}},{"type":"Feature","properties":{"CountryName":"Romania","Type of Animal":"Pigs"},"geometry":{"type":"Point","coordinates":[21.828719,46.365483]}},{"type":"Feature","properties":{"CountryName":"Romania","Type of Animal":"Pigs"},"geometry":{"type":"Point","coordinates":[26.8918812,45.1124818]}},{"type":"Feature","properties":{"CountryName":"Romania","Type of Animal":"Pigs"},"geometry":{"type":"Point","coordinates":[27.305217,44.168914]}},{"type":"Feature","properties":{"CountryName":"Romania","Type of Animal":"Pigs"},"geometry":{"type":"Point","coordinates":[25.981229,44.668811]}},{"type":"Feature","properties":{"CountryName":"Romania","Type of Animal":"Pigs"},"geometry":{"type":"Point","coordinates":[26.822682,44.796857]}},{"type":"Feature","properties":{"CountryName":"Romania","Type of Animal":"Pigs"},"geometry":{"type":"Point","coordinates":[20.711818,45.827231]}},{"type":"Feature","properties":{"CountryName":"Romania","Type of Animal":"Pigs"},"geometry":{"type":"Point","coordinates":[21.631743,46.549789]}},{"type":"Feature","properties":{"CountryName":"Romania","Type of Animal":"Pigs"},"geometry":{"type":"Point","coordinates":[27.844786,45.049916]}},{"type":"Feature","properties":{"CountryName":"Romania","Type of Animal":"Pigs"},"geometry":{"type":"Point","coordinates":[26.749061,44.822888]}},{"type":"Feature","properties":{"CountryName":"Romania","Type of Animal":"Pigs"},"geometry":{"type":"Point","coordinates":[24.146328,46.949578]}},{"type":"Feature","properties":{"CountryName":"Romania","Type of Animal":"Pigs"},"geometry":{"type":"Point","coordinates":[23.219687,45.868926]}},{"type":"Feature","properties":{"CountryName":"Romania","Type of Animal":"Pigs"},"geometry":{"type":"Point","coordinates":[20.776167,45.806412]}},{"type":"Feature","properties":{"CountryName":"Romania","Type of Animal":"Pigs"},"geometry":{"type":"Point","coordinates":[21.353614,46.477251]}},{"type":"Feature","properties":{"CountryName":"Romania","Type of Animal":"Pigs"},"geometry":{"type":"Point","coordinates":[21.808244,47.074613]}},{"type":"Feature","properties":{"CountryName":"Romania","Type of Animal":"Pigs"},"geometry":{"type":"Point","coordinates":[26.631194,44.904917]}},{"type":"Feature","properties":{"CountryName":"Romania","Type of Animal":"Pigs"},"geometry":{"type":"Point","coordinates":[26.573522,44.121194]}},{"type":"Feature","properties":{"CountryName":"Romania","Type of Animal":"Pigs"},"geometry":{"type":"Point","coordinates":[27.112698,47.307912]}},{"type":"Feature","properties":{"CountryName":"Romania","Type of Animal":"Pigs"},"geometry":{"type":"Point","coordinates":[20.792963,46.081074]}},{"type":"Feature","properties":{"CountryName":"Romania","Type of Animal":"Pigs"},"geometry":{"type":"Point","coordinates":[21.329076,46.379091]}},{"type":"Feature","properties":{"CountryName":"Romania","Type of Animal":"Pigs"},"geometry":{"type":"Point","coordinates":[26.893729,44.222714]}},{"type":"Feature","properties":{"CountryName":"Romania","Type of Animal":"Pigs"},"geometry":{"type":"Point","coordinates":[20.778773,46.089858]}},{"type":"Feature","properties":{"CountryName":"Romania","Type of Animal":"Pigs"},"geometry":{"type":"Point","coordinates":[25.141275,44.699305]}},{"type":"Feature","properties":{"CountryName":"Romania","Type of Animal":"Pigs"},"geometry":{"type":"Point","coordinates":[21.745995,46.615842]}},{"type":"Feature","properties":{"CountryName":"Romania","Type of Animal":"Pigs"},"geometry":{"type":"Point","coordinates":[22.384516,47.364828]}},{"type":"Feature","properties":{"CountryName":"Romania","Type of Animal":"Pigs"},"geometry":{"type":"Point","coordinates":[26.446023,44.266749]}},{"type":"Feature","properties":{"CountryName":"Romania","Type of Animal":"Pigs"},"geometry":{"type":"Point","coordinates":[24.372775,46.590733]}},{"type":"Feature","properties":{"CountryName":"Romania","Type of Animal":"Pigs"},"geometry":{"type":"Point","coordinates":[20.849211,46.072428]}},{"type":"Feature","properties":{"CountryName":"Romania","Type of Animal":"Pigs"},"geometry":{"type":"Point","coordinates":[25.222371,44.507797]}},{"type":"Feature","properties":{"CountryName":"Romania","Type of Animal":"Pigs"},"geometry":{"type":"Point","coordinates":[22.009819,46.407481]}},{"type":"Feature","properties":{"CountryName":"Romania","Type of Animal":"Pigs"},"geometry":{"type":"Point","coordinates":[22.268681,47.449157]}},{"type":"Feature","properties":{"CountryName":"Romania","Type of Animal":"Pigs"},"geometry":{"type":"Point","coordinates":[26.480411,44.323713]}},{"type":"Feature","properties":{"CountryName":"Romania","Type of Animal":"Pigs"},"geometry":{"type":"Point","coordinates":[28.533889,44.396603]}},{"type":"Feature","properties":{"CountryName":"Romania","Type of Animal":"Pigs"},"geometry":{"type":"Point","coordinates":[27.167915,47.376012]}},{"type":"Feature","properties":{"CountryName":"Romania","Type of Animal":"Pigs"},"geometry":{"type":"Point","coordinates":[20.786796,46.070323]}},{"type":"Feature","properties":{"CountryName":"Romania","Type of Animal":"Pigs"},"geometry":{"type":"Point","coordinates":[24.8732805,44.6776694]}},{"type":"Feature","properties":{"CountryName":"Romania","Type of Animal":"Pigs"},"geometry":{"type":"Point","coordinates":[21.735774,46.614832]}},{"type":"Feature","properties":{"CountryName":"Romania","Type of Animal":"Pigs"},"geometry":{"type":"Point","coordinates":[28.569138,44.591411]}},{"type":"Feature","properties":{"CountryName":"Romania","Type of Animal":"Pigs"},"geometry":{"type":"Point","coordinates":[22.312585,47.538863]}},{"type":"Feature","properties":{"CountryName":"Romania","Type of Animal":"Pigs"},"geometry":{"type":"Point","coordinates":[21.189173,45.595997]}},{"type":"Feature","properties":{"CountryName":"Romania","Type of Animal":"Pigs"},"geometry":{"type":"Point","coordinates":[21.815645,46.510355]}},{"type":"Feature","properties":{"CountryName":"Romania","Type of Animal":"Pigs"},"geometry":{"type":"Point","coordinates":[22.123674,46.776597]}},{"type":"Feature","properties":{"CountryName":"Romania","Type of Animal":"Pigs"},"geometry":{"type":"Point","coordinates":[27.534444,45.412778]}},{"type":"Feature","properties":{"CountryName":"Romania","Type of Animal":"Pigs"},"geometry":{"type":"Point","coordinates":[22.889877,47.426156]}},{"type":"Feature","properties":{"CountryName":"Romania","Type of Animal":"Pigs"},"geometry":{"type":"Point","coordinates":[26.954776,46.888133]}},{"type":"Feature","properties":{"CountryName":"Romania","Type of Animal":"Pigs"},"geometry":{"type":"Point","coordinates":[22.890113,47.427734]}},{"type":"Feature","properties":{"CountryName":"Romania","Type of Animal":"Pigs"},"geometry":{"type":"Point","coordinates":[21.554997,45.643884]}},{"type":"Feature","properties":{"CountryName":"Romania","Type of Animal":"Pigs"},"geometry":{"type":"Point","coordinates":[26.839569,44.844779]}},{"type":"Feature","properties":{"CountryName":"Romania","Type of Animal":"Pigs"},"geometry":{"type":"Point","coordinates":[27.292191,44.172858]}},{"type":"Feature","properties":{"CountryName":"Romania","Type of Animal":"Pigs"},"geometry":{"type":"Point","coordinates":[23.139653,45.845152]}},{"type":"Feature","properties":{"CountryName":"Romania","Type of Animal":"Pigs"},"geometry":{"type":"Point","coordinates":[22.661784,47.539986]}},{"type":"Feature","properties":{"CountryName":"Romania","Type of Animal":"Pigs"},"geometry":{"type":"Point","coordinates":[21.407897,45.420779]}},{"type":"Feature","properties":{"CountryName":"Romania","Type of Animal":"Pigs"},"geometry":{"type":"Point","coordinates":[26.595538,46.526881]}},{"type":"Feature","properties":{"CountryName":"Romania","Type of Animal":"Pigs"},"geometry":{"type":"Point","coordinates":[27.247593,44.246924]}},{"type":"Feature","properties":{"CountryName":"Romania","Type of Animal":"Pigs"},"geometry":{"type":"Point","coordinates":[24.642792,46.407781]}},{"type":"Feature","properties":{"CountryName":"Romania","Type of Animal":"Pigs"},"geometry":{"type":"Point","coordinates":[21.564712,45.562979]}},{"type":"Feature","properties":{"CountryName":"Romania","Type of Animal":"Pigs"},"geometry":{"type":"Point","coordinates":[26.981109,46.377486]}},{"type":"Feature","properties":{"CountryName":"Romania","Type of Animal":"Pigs"},"geometry":{"type":"Point","coordinates":[24.326885,46.551689]}},{"type":"Feature","properties":{"CountryName":"Romania","Type of Animal":"Pigs"},"geometry":{"type":"Point","coordinates":[26.269955,44.807034]}},{"type":"Feature","properties":{"CountryName":"Romania","Type of Animal":"Pigs"},"geometry":{"type":"Point","coordinates":[21.563744,45.580137]}},{"type":"Feature","properties":{"CountryName":"Romania","Type of Animal":"Pigs"},"geometry":{"type":"Point","coordinates":[26.515135,44.771726]}},{"type":"Feature","properties":{"CountryName":"Romania","Type of Animal":"Pigs"},"geometry":{"type":"Point","coordinates":[24.245726,46.435453]}},{"type":"Feature","properties":{"CountryName":"Romania","Type of Animal":"Pigs"},"geometry":{"type":"Point","coordinates":[21.572771,45.592711]}},{"type":"Feature","properties":{"CountryName":"Romania","Type of Animal":"Pigs"},"geometry":{"type":"Point","coordinates":[26.247947,44.977239]}},{"type":"Feature","properties":{"CountryName":"Romania","Type of Animal":"Pigs"},"geometry":{"type":"Point","coordinates":[21.766155,45.712935]}},{"type":"Feature","properties":{"CountryName":"Romania","Type of Animal":"Pigs"},"geometry":{"type":"Point","coordinates":[26.247421,44.978034]}},{"type":"Feature","properties":{"CountryName":"Romania","Type of Animal":"Pigs"},"geometry":{"type":"Point","coordinates":[21.720364,45.701327]}},{"type":"Feature","properties":{"CountryName":"Romania","Type of Animal":"Pigs"},"geometry":{"type":"Point","coordinates":[21.563441,46.401111]}},{"type":"Feature","properties":{"CountryName":"Romania","Type of Animal":"Pigs"},"geometry":{"type":"Point","coordinates":[21.313431,45.440491]}},{"type":"Feature","properties":{"CountryName":"Romania","Type of Animal":"Pigs"},"geometry":{"type":"Point","coordinates":[21.719029,45.692231]}},{"type":"Feature","properties":{"CountryName":"Romania","Type of Animal":"Pigs"},"geometry":{"type":"Point","coordinates":[21.564281,46.400571]}},{"type":"Feature","properties":{"CountryName":"Romania","Type of Animal":"Pigs"},"geometry":{"type":"Point","coordinates":[21.163026,46.009196]}},{"type":"Feature","properties":{"CountryName":"Romania","Type of Animal":"Pigs"},"geometry":{"type":"Point","coordinates":[21.741128,46.728448]}},{"type":"Feature","properties":{"CountryName":"Romania","Type of Animal":"Pigs"},"geometry":{"type":"Point","coordinates":[26.987264,47.223811]}},{"type":"Feature","properties":{"CountryName":"Romania","Type of Animal":"Pigs"},"geometry":{"type":"Point","coordinates":[22.779298,47.494315]}},{"type":"Feature","properties":{"CountryName":"Romania","Type of Animal":"Pigs"},"geometry":{"type":"Point","coordinates":[20.837248,45.782891]}},{"type":"Feature","properties":{"CountryName":"Romania","Type of Animal":"Pigs"},"geometry":{"type":"Point","coordinates":[20.873536,46.106831]}},{"type":"Feature","properties":{"CountryName":"Romania","Type of Animal":"Pigs"},"geometry":{"type":"Point","coordinates":[20.833548,45.770864]}},{"type":"Feature","properties":{"CountryName":"Romania","Type of Animal":"Pigs"},"geometry":{"type":"Point","coordinates":[20.868431,46.107169]}},{"type":"Feature","properties":{"CountryName":"Romania","Type of Animal":"Pigs"},"geometry":{"type":"Point","coordinates":[26.836433,44.844824]}},{"type":"Feature","properties":{"CountryName":"Romania","Type of Animal":"Pigs"},"geometry":{"type":"Point","coordinates":[20.889571,45.878957]}},{"type":"Feature","properties":{"CountryName":"Romania","Type of Animal":"Pigs"},"geometry":{"type":"Point","coordinates":[25.569782,45.807648]}},{"type":"Feature","properties":{"CountryName":"Romania","Type of Animal":"Pigs"},"geometry":{"type":"Point","coordinates":[20.907579,45.891226]}},{"type":"Feature","properties":{"CountryName":"Romania","Type of Animal":"Pigs"},"geometry":{"type":"Point","coordinates":[21.147731,46.241073]}},{"type":"Feature","properties":{"CountryName":"Romania","Type of Animal":"Pigs"},"geometry":{"type":"Point","coordinates":[25.477767,45.798768]}},{"type":"Feature","properties":{"CountryName":"Romania","Type of Animal":"Pigs"},"geometry":{"type":"Point","coordinates":[21.382981,45.402219]}},{"type":"Feature","properties":{"CountryName":"Romania","Type of Animal":"Pigs"},"geometry":{"type":"Point","coordinates":[21.623371,46.722977]}},{"type":"Feature","properties":{"CountryName":"Romania","Type of Animal":"Pigs"},"geometry":{"type":"Point","coordinates":[22.422191,47.719717]}},{"type":"Feature","properties":{"CountryName":"Romania","Type of Animal":"Pigs"},"geometry":{"type":"Point","coordinates":[20.472558,46.092343]}},{"type":"Feature","properties":{"CountryName":"Romania","Type of Animal":"Pigs"},"geometry":{"type":"Point","coordinates":[25.113931,45.834571]}},{"type":"Feature","properties":{"CountryName":"Romania","Type of Animal":"Pigs"},"geometry":{"type":"Point","coordinates":[26.856941,44.846261]}},{"type":"Feature","properties":{"CountryName":"Romania","Type of Animal":"Pigs"},"geometry":{"type":"Point","coordinates":[20.847548,45.768833]}},{"type":"Feature","properties":{"CountryName":"Romania","Type of Animal":"Pigs"},"geometry":{"type":"Point","coordinates":[25.145078,45.817445]}},{"type":"Feature","properties":{"CountryName":"Romania","Type of Animal":"Pigs"},"geometry":{"type":"Point","coordinates":[20.848272,45.842531]}},{"type":"Feature","properties":{"CountryName":"Romania","Type of Animal":"Pigs"},"geometry":{"type":"Point","coordinates":[20.519761,45.954263]}},{"type":"Feature","properties":{"CountryName":"Romania","Type of Animal":"Pigs"},"geometry":{"type":"Point","coordinates":[21.070017,45.890469]}},{"type":"Feature","properties":{"CountryName":"Romania","Type of Animal":"Pigs"},"geometry":{"type":"Point","coordinates":[26.708193,44.148141]}},{"type":"Feature","properties":{"CountryName":"Romania","Type of Animal":"Pigs"},"geometry":{"type":"Point","coordinates":[20.805585,45.916211]}},{"type":"Feature","properties":{"CountryName":"Romania","Type of Animal":"Pigs"},"geometry":{"type":"Point","coordinates":[20.917511,45.713781]}},{"type":"Feature","properties":{"CountryName":"Romania","Type of Animal":"Pigs"},"geometry":{"type":"Point","coordinates":[21.136151,45.490156]}},{"type":"Feature","properties":{"CountryName":"Romania","Type of Animal":"Pigs"},"geometry":{"type":"Point","coordinates":[21.409126,45.449559]}},{"type":"Feature","properties":{"CountryName":"Romania","Type of Animal":"Pigs"},"geometry":{"type":"Point","coordinates":[25.103462,45.788233]}},{"type":"Feature","properties":{"CountryName":"Romania","Type of Animal":"Pigs"},"geometry":{"type":"Point","coordinates":[25.477629,45.799626]}},{"type":"Feature","properties":{"CountryName":"Romania","Type of Animal":"Poultry"},"geometry":{"type":"Point","coordinates":[25.897433,44.327777]}},{"type":"Feature","properties":{"CountryName":"Romania","Type of Animal":"Poultry"},"geometry":{"type":"Point","coordinates":[26.543511,47.792397]}},{"type":"Feature","properties":{"CountryName":"Romania","Type of Animal":"Poultry"},"geometry":{"type":"Point","coordinates":[24.955527,44.006423]}},{"type":"Feature","properties":{"CountryName":"Romania","Type of Animal":"Poultry"},"geometry":{"type":"Point","coordinates":[26.735527,45.128416]}},{"type":"Feature","properties":{"CountryName":"Romania","Type of Animal":"Poultry"},"geometry":{"type":"Point","coordinates":[25.767095,45.800974]}},{"type":"Feature","properties":{"CountryName":"Romania","Type of Animal":"Poultry"},"geometry":{"type":"Point","coordinates":[23.277441,45.007452]}},{"type":"Feature","properties":{"CountryName":"Romania","Type of Animal":"Poultry"},"geometry":{"type":"Point","coordinates":[25.589529,46.741584]}},{"type":"Feature","properties":{"CountryName":"Romania","Type of Animal":"Poultry"},"geometry":{"type":"Point","coordinates":[23.002028,47.218169]}},{"type":"Feature","properties":{"CountryName":"Romania","Type of Animal":"Poultry"},"geometry":{"type":"Point","coordinates":[25.388286,44.003434]}},{"type":"Feature","properties":{"CountryName":"Romania","Type of Animal":"Poultry"},"geometry":{"type":"Point","coordinates":[27.648885,46.671766]}},{"type":"Feature","properties":{"CountryName":"Romania","Type of Animal":"Poultry"},"geometry":{"type":"Point","coordinates":[27.249944,45.331419]}},{"type":"Feature","properties":{"CountryName":"Romania","Type of Animal":"Poultry"},"geometry":{"type":"Point","coordinates":[23.342054,45.049133]}},{"type":"Feature","properties":{"CountryName":"Romania","Type of Animal":"Poultry"},"geometry":{"type":"Point","coordinates":[25.868035,44.352273]}},{"type":"Feature","properties":{"CountryName":"Romania","Type of Animal":"Poultry"},"geometry":{"type":"Point","coordinates":[25.006192,46.265371]}},{"type":"Feature","properties":{"CountryName":"Romania","Type of Animal":"Poultry"},"geometry":{"type":"Point","coordinates":[22.991124,47.233068]}},{"type":"Feature","properties":{"CountryName":"Romania","Type of Animal":"Poultry"},"geometry":{"type":"Point","coordinates":[22.297587,47.643973]}},{"type":"Feature","properties":{"CountryName":"Romania","Type of Animal":"Poultry"},"geometry":{"type":"Point","coordinates":[25.573781,44.088987]}},{"type":"Feature","properties":{"CountryName":"Romania","Type of Animal":"Poultry"},"geometry":{"type":"Point","coordinates":[24.371875,45.056572]}},{"type":"Feature","properties":{"CountryName":"Romania","Type of Animal":"Poultry"},"geometry":{"type":"Point","coordinates":[27.173335,45.668709]}},{"type":"Feature","properties":{"CountryName":"Romania","Type of Animal":"Poultry"},"geometry":{"type":"Point","coordinates":[23.474917,45.959783]}},{"type":"Feature","properties":{"CountryName":"Romania","Type of Animal":"Poultry"},"geometry":{"type":"Point","coordinates":[26.497767,47.815701]}},{"type":"Feature","properties":{"CountryName":"Romania","Type of Animal":"Poultry"},"geometry":{"type":"Point","coordinates":[26.6267395,44.9126082]}},{"type":"Feature","properties":{"CountryName":"Romania","Type of Animal":"Poultry"},"geometry":{"type":"Point","coordinates":[21.718956,45.359052]}},{"type":"Feature","properties":{"CountryName":"Romania","Type of Animal":"Poultry"},"geometry":{"type":"Point","coordinates":[23.279442,45.001326]}},{"type":"Feature","properties":{"CountryName":"Romania","Type of Animal":"Poultry"},"geometry":{"type":"Point","coordinates":[25.884351,44.327581]}},{"type":"Feature","properties":{"CountryName":"Romania","Type of Animal":"Poultry"},"geometry":{"type":"Point","coordinates":[27.332042,44.588922]}},{"type":"Feature","properties":{"CountryName":"Romania","Type of Animal":"Poultry"},"geometry":{"type":"Point","coordinates":[24.6055769,44.1824944]}},{"type":"Feature","properties":{"CountryName":"Romania","Type of Animal":"Poultry"},"geometry":{"type":"Point","coordinates":[22.784297,47.320973]}},{"type":"Feature","properties":{"CountryName":"Romania","Type of Animal":"Poultry"},"geometry":{"type":"Point","coordinates":[24.244582,45.023554]}},{"type":"Feature","properties":{"CountryName":"Romania","Type of Animal":"Poultry"},"geometry":{"type":"Point","coordinates":[27.203964,45.711282]}},{"type":"Feature","properties":{"CountryName":"Romania","Type of Animal":"Poultry"},"geometry":{"type":"Point","coordinates":[27.755451,46.631297]}},{"type":"Feature","properties":{"CountryName":"Romania","Type of Animal":"Poultry"},"geometry":{"type":"Point","coordinates":[23.915196,46.438392]}},{"type":"Feature","properties":{"CountryName":"Romania","Type of Animal":"Poultry"},"geometry":{"type":"Point","coordinates":[26.584087,47.772093]}},{"type":"Feature","properties":{"CountryName":"Romania","Type of Animal":"Poultry"},"geometry":{"type":"Point","coordinates":[26.902112,45.112668]}},{"type":"Feature","properties":{"CountryName":"Romania","Type of Animal":"Poultry"},"geometry":{"type":"Point","coordinates":[21.695722,45.364215]}},{"type":"Feature","properties":{"CountryName":"Romania","Type of Animal":"Poultry"},"geometry":{"type":"Point","coordinates":[23.474369,44.621341]}},{"type":"Feature","properties":{"CountryName":"Romania","Type of Animal":"Poultry"},"geometry":{"type":"Point","coordinates":[27.035549,44.624564]}},{"type":"Feature","properties":{"CountryName":"Romania","Type of Animal":"Poultry"},"geometry":{"type":"Point","coordinates":[24.192489,44.991669]}},{"type":"Feature","properties":{"CountryName":"Romania","Type of Animal":"Poultry"},"geometry":{"type":"Point","coordinates":[27.178563,45.654744]}},{"type":"Feature","properties":{"CountryName":"Romania","Type of Animal":"Poultry"},"geometry":{"type":"Point","coordinates":[27.583341,46.637724]}},{"type":"Feature","properties":{"CountryName":"Romania","Type of Animal":"Poultry"},"geometry":{"type":"Point","coordinates":[26.507232,47.77244]}},{"type":"Feature","properties":{"CountryName":"Romania","Type of Animal":"Poultry"},"geometry":{"type":"Point","coordinates":[26.884836,45.121641]}},{"type":"Feature","properties":{"CountryName":"Romania","Type of Animal":"Poultry"},"geometry":{"type":"Point","coordinates":[21.670279,45.388864]}},{"type":"Feature","properties":{"CountryName":"Romania","Type of Animal":"Poultry"},"geometry":{"type":"Point","coordinates":[27.552962,45.875277]}},{"type":"Feature","properties":{"CountryName":"Romania","Type of Animal":"Poultry"},"geometry":{"type":"Point","coordinates":[24.77808599,44.26916587]}},{"type":"Feature","properties":{"CountryName":"Romania","Type of Animal":"Poultry"},"geometry":{"type":"Point","coordinates":[24.905515,43.758316]}},{"type":"Feature","properties":{"CountryName":"Romania","Type of Animal":"Poultry"},"geometry":{"type":"Point","coordinates":[24.259424,45.027781]}},{"type":"Feature","properties":{"CountryName":"Romania","Type of Animal":"Poultry"},"geometry":{"type":"Point","coordinates":[27.565361,46.875488]}},{"type":"Feature","properties":{"CountryName":"Romania","Type of Animal":"Poultry"},"geometry":{"type":"Point","coordinates":[23.637129,46.154828]}},{"type":"Feature","properties":{"CountryName":"Romania","Type of Animal":"Poultry"},"geometry":{"type":"Point","coordinates":[26.673259,47.769011]}},{"type":"Feature","properties":{"CountryName":"Romania","Type of Animal":"Poultry"},"geometry":{"type":"Point","coordinates":[26.572223,44.92111]}},{"type":"Feature","properties":{"CountryName":"Romania","Type of Animal":"Poultry"},"geometry":{"type":"Point","coordinates":[27.275643,44.425265]}},{"type":"Feature","properties":{"CountryName":"Romania","Type of Animal":"Poultry"},"geometry":{"type":"Point","coordinates":[21.607847,45.426488]}},{"type":"Feature","properties":{"CountryName":"Romania","Type of Animal":"Poultry"},"geometry":{"type":"Point","coordinates":[23.904521,44.301596]}},{"type":"Feature","properties":{"CountryName":"Romania","Type of Animal":"Poultry"},"geometry":{"type":"Point","coordinates":[27.536791,45.657557]}},{"type":"Feature","properties":{"CountryName":"Romania","Type of Animal":"Poultry"},"geometry":{"type":"Point","coordinates":[25.856799,44.315636]}},{"type":"Feature","properties":{"CountryName":"Romania","Type of Animal":"Poultry"},"geometry":{"type":"Point","coordinates":[23.290946,47.729942]}},{"type":"Feature","properties":{"CountryName":"Romania","Type of Animal":"Poultry"},"geometry":{"type":"Point","coordinates":[24.550876,44.560454]}},{"type":"Feature","properties":{"CountryName":"Romania","Type of Animal":"Poultry"},"geometry":{"type":"Point","coordinates":[25.241391,44.051573]}},{"type":"Feature","properties":{"CountryName":"Romania","Type of Animal":"Poultry"},"geometry":{"type":"Point","coordinates":[27.440725,46.506656]}},{"type":"Feature","properties":{"CountryName":"Romania","Type of Animal":"Poultry"},"geometry":{"type":"Point","coordinates":[23.637811,46.138113]}},{"type":"Feature","properties":{"CountryName":"Romania","Type of Animal":"Poultry"},"geometry":{"type":"Point","coordinates":[26.66633,47.77372]}},{"type":"Feature","properties":{"CountryName":"Romania","Type of Animal":"Poultry"},"geometry":{"type":"Point","coordinates":[27.265567,44.437258]}},{"type":"Feature","properties":{"CountryName":"Romania","Type of Animal":"Poultry"},"geometry":{"type":"Point","coordinates":[21.667018,45.394617]}},{"type":"Feature","properties":{"CountryName":"Romania","Type of Animal":"Poultry"},"geometry":{"type":"Point","coordinates":[23.923651,44.253065]}},{"type":"Feature","properties":{"CountryName":"Romania","Type of Animal":"Poultry"},"geometry":{"type":"Point","coordinates":[28.014034,45.553902]}},{"type":"Feature","properties":{"CountryName":"Romania","Type of Animal":"Poultry"},"geometry":{"type":"Point","coordinates":[25.899944,44.326527]}},{"type":"Feature","properties":{"CountryName":"Romania","Type of Animal":"Poultry"},"geometry":{"type":"Point","coordinates":[27.401108,44.550859]}},{"type":"Feature","properties":{"CountryName":"Romania","Type of Animal":"Poultry"},"geometry":{"type":"Point","coordinates":[27.712297,47.134434]}},{"type":"Feature","properties":{"CountryName":"Romania","Type of Animal":"Poultry"},"geometry":{"type":"Point","coordinates":[23.743463,45.911647]}},{"type":"Feature","properties":{"CountryName":"Romania","Type of Animal":"Poultry"},"geometry":{"type":"Point","coordinates":[23.166516,47.793751]}},{"type":"Feature","properties":{"CountryName":"Romania","Type of Animal":"Poultry"},"geometry":{"type":"Point","coordinates":[26.2982917,47.6596639]}},{"type":"Feature","properties":{"CountryName":"Romania","Type of Animal":"Poultry"},"geometry":{"type":"Point","coordinates":[24.203118,44.988121]}},{"type":"Feature","properties":{"CountryName":"Romania","Type of Animal":"Poultry"},"geometry":{"type":"Point","coordinates":[27.827686,46.439199]}},{"type":"Feature","properties":{"CountryName":"Romania","Type of Animal":"Poultry"},"geometry":{"type":"Point","coordinates":[23.639975,46.132593]}},{"type":"Feature","properties":{"CountryName":"Romania","Type of Animal":"Poultry"},"geometry":{"type":"Point","coordinates":[26.869368,46.700174]}},{"type":"Feature","properties":{"CountryName":"Romania","Type of Animal":"Poultry"},"geometry":{"type":"Point","coordinates":[21.937947,47.219661]}},{"type":"Feature","properties":{"CountryName":"Romania","Type of Animal":"Poultry"},"geometry":{"type":"Point","coordinates":[27.351377,45.807819]}},{"type":"Feature","properties":{"CountryName":"Romania","Type of Animal":"Poultry"},"geometry":{"type":"Point","coordinates":[27.403962,44.550856]}},{"type":"Feature","properties":{"CountryName":"Romania","Type of Animal":"Poultry"},"geometry":{"type":"Point","coordinates":[27.182752,47.255026]}},{"type":"Feature","properties":{"CountryName":"Romania","Type of Animal":"Poultry"},"geometry":{"type":"Point","coordinates":[23.299549,47.730921]}},{"type":"Feature","properties":{"CountryName":"Romania","Type of Animal":"Poultry"},"geometry":{"type":"Point","coordinates":[24.008575,45.77118611]}},{"type":"Feature","properties":{"CountryName":"Romania","Type of Animal":"Poultry"},"geometry":{"type":"Point","coordinates":[23.164452,47.802711]}},{"type":"Feature","properties":{"CountryName":"Romania","Type of Animal":"Poultry"},"geometry":{"type":"Point","coordinates":[24.257288,45.027755]}},{"type":"Feature","properties":{"CountryName":"Romania","Type of Animal":"Poultry"},"geometry":{"type":"Point","coordinates":[27.750869,46.589106]}},{"type":"Feature","properties":{"CountryName":"Romania","Type of Animal":"Poultry"},"geometry":{"type":"Point","coordinates":[23.659438,46.175762]}},{"type":"Feature","properties":{"CountryName":"Romania","Type of Animal":"Poultry"},"geometry":{"type":"Point","coordinates":[21.598757,46.757888]}},{"type":"Feature","properties":{"CountryName":"Romania","Type of Animal":"Poultry"},"geometry":{"type":"Point","coordinates":[26.684285,44.378565]}},{"type":"Feature","properties":{"CountryName":"Romania","Type of Animal":"Poultry"},"geometry":{"type":"Point","coordinates":[27.387416,45.763239]}},{"type":"Feature","properties":{"CountryName":"Romania","Type of Animal":"Poultry"},"geometry":{"type":"Point","coordinates":[25.921192,43.992664]}},{"type":"Feature","properties":{"CountryName":"Romania","Type of Animal":"Poultry"},"geometry":{"type":"Point","coordinates":[23.527911,47.635766]}},{"type":"Feature","properties":{"CountryName":"Romania","Type of Animal":"Poultry"},"geometry":{"type":"Point","coordinates":[26.514739,46.903993]}},{"type":"Feature","properties":{"CountryName":"Romania","Type of Animal":"Poultry"},"geometry":{"type":"Point","coordinates":[24.395665,46.177813]}},{"type":"Feature","properties":{"CountryName":"Romania","Type of Animal":"Poultry"},"geometry":{"type":"Point","coordinates":[22.757191,47.456792]}},{"type":"Feature","properties":{"CountryName":"Romania","Type of Animal":"Poultry"},"geometry":{"type":"Point","coordinates":[28.1528789,45.243587]}},{"type":"Feature","properties":{"CountryName":"Romania","Type of Animal":"Poultry"},"geometry":{"type":"Point","coordinates":[27.692647,46.256769]}},{"type":"Feature","properties":{"CountryName":"Romania","Type of Animal":"Poultry"},"geometry":{"type":"Point","coordinates":[23.842352,46.412673]}},{"type":"Feature","properties":{"CountryName":"Romania","Type of Animal":"Poultry"},"geometry":{"type":"Point","coordinates":[24.679576,45.074914]}},{"type":"Feature","properties":{"CountryName":"Romania","Type of Animal":"Poultry"},"geometry":{"type":"Point","coordinates":[26.908159,46.590361]}},{"type":"Feature","properties":{"CountryName":"Romania","Type of Animal":"Poultry"},"geometry":{"type":"Point","coordinates":[21.644182,46.788686]}},{"type":"Feature","properties":{"CountryName":"Romania","Type of Animal":"Poultry"},"geometry":{"type":"Point","coordinates":[27.227638,45.072606]}},{"type":"Feature","properties":{"CountryName":"Romania","Type of Animal":"Poultry"},"geometry":{"type":"Point","coordinates":[27.554997,44.414254]}},{"type":"Feature","properties":{"CountryName":"Romania","Type of Animal":"Poultry"},"geometry":{"type":"Point","coordinates":[23.284125,45.013865]}},{"type":"Feature","properties":{"CountryName":"Romania","Type of Animal":"Poultry"},"geometry":{"type":"Point","coordinates":[26.684223,44.708434]}},{"type":"Feature","properties":{"CountryName":"Romania","Type of Animal":"Poultry"},"geometry":{"type":"Point","coordinates":[23.180162,47.462447]}},{"type":"Feature","properties":{"CountryName":"Romania","Type of Animal":"Poultry"},"geometry":{"type":"Point","coordinates":[24.544861,46.224784]}},{"type":"Feature","properties":{"CountryName":"Romania","Type of Animal":"Poultry"},"geometry":{"type":"Point","coordinates":[22.549426,47.688137]}},{"type":"Feature","properties":{"CountryName":"Romania","Type of Animal":"Poultry"},"geometry":{"type":"Point","coordinates":[27.770587,46.344196]}},{"type":"Feature","properties":{"CountryName":"Romania","Type of Animal":"Poultry"},"geometry":{"type":"Point","coordinates":[23.545799,46.055845]}},{"type":"Feature","properties":{"CountryName":"Romania","Type of Animal":"Poultry"},"geometry":{"type":"Point","coordinates":[26.767146,46.728908]}},{"type":"Feature","properties":{"CountryName":"Romania","Type of Animal":"Poultry"},"geometry":{"type":"Point","coordinates":[21.831249,46.964517]}},{"type":"Feature","properties":{"CountryName":"Romania","Type of Animal":"Poultry"},"geometry":{"type":"Point","coordinates":[27.255771,45.081331]}},{"type":"Feature","properties":{"CountryName":"Romania","Type of Animal":"Poultry"},"geometry":{"type":"Point","coordinates":[26.449221,47.748444]}},{"type":"Feature","properties":{"CountryName":"Romania","Type of Animal":"Poultry"},"geometry":{"type":"Point","coordinates":[23.397963,46.743845]}},{"type":"Feature","properties":{"CountryName":"Romania","Type of Animal":"Poultry"},"geometry":{"type":"Point","coordinates":[27.590913,44.414191]}},{"type":"Feature","properties":{"CountryName":"Romania","Type of Animal":"Poultry"},"geometry":{"type":"Point","coordinates":[23.287373,45.002332]}},{"type":"Feature","properties":{"CountryName":"Romania","Type of Animal":"Poultry"},"geometry":{"type":"Point","coordinates":[27.309351,44.526778]}},{"type":"Feature","properties":{"CountryName":"Romania","Type of Animal":"Poultry"},"geometry":{"type":"Point","coordinates":[23.302519,47.730751]}},{"type":"Feature","properties":{"CountryName":"Romania","Type of Animal":"Poultry"},"geometry":{"type":"Point","coordinates":[26.861825,46.972351]}},{"type":"Feature","properties":{"CountryName":"Romania","Type of Animal":"Poultry"},"geometry":{"type":"Point","coordinates":[24.445524,44.784644]}},{"type":"Feature","properties":{"CountryName":"Romania","Type of Animal":"Poultry"},"geometry":{"type":"Point","coordinates":[24.049205,45.784284]}},{"type":"Feature","properties":{"CountryName":"Romania","Type of Animal":"Poultry"},"geometry":{"type":"Point","coordinates":[23.165348,47.802038]}},{"type":"Feature","properties":{"CountryName":"Romania","Type of Animal":"Poultry"},"geometry":{"type":"Point","coordinates":[27.837666,46.439136]}},{"type":"Feature","properties":{"CountryName":"Romania","Type of Animal":"Poultry"},"geometry":{"type":"Point","coordinates":[26.959965,46.586556]}},{"type":"Feature","properties":{"CountryName":"Romania","Type of Animal":"Poultry"},"geometry":{"type":"Point","coordinates":[21.594349,46.753761]}},{"type":"Feature","properties":{"CountryName":"Romania","Type of Animal":"Poultry"},"geometry":{"type":"Point","coordinates":[27.252663,45.083024]}},{"type":"Feature","properties":{"CountryName":"Romania","Type of Animal":"Poultry"},"geometry":{"type":"Point","coordinates":[26.618996,44.918878]}},{"type":"Feature","properties":{"CountryName":"Romania","Type of Animal":"Poultry"},"geometry":{"type":"Point","coordinates":[27.427173,44.206171]}},{"type":"Feature","properties":{"CountryName":"Romania","Type of Animal":"Poultry"},"geometry":{"type":"Point","coordinates":[21.693449,45.37034306]}},{"type":"Feature","properties":{"CountryName":"Romania","Type of Animal":"Poultry"},"geometry":{"type":"Point","coordinates":[23.281392,45.009867]}},{"type":"Feature","properties":{"CountryName":"Romania","Type of Animal":"Poultry"},"geometry":{"type":"Point","coordinates":[22.861492,45.912849]}},{"type":"Feature","properties":{"CountryName":"Romania","Type of Animal":"Poultry"},"geometry":{"type":"Point","coordinates":[26.664103,44.784421]}},{"type":"Feature","properties":{"CountryName":"Romania","Type of Animal":"Poultry"},"geometry":{"type":"Point","coordinates":[26.448776,46.918966]}},{"type":"Feature","properties":{"CountryName":"Romania","Type of Animal":"Poultry"},"geometry":{"type":"Point","coordinates":[22.776061,47.488329]}},{"type":"Feature","properties":{"CountryName":"Romania","Type of Animal":"Poultry"},"geometry":{"type":"Point","coordinates":[27.751777,46.587309]}},{"type":"Feature","properties":{"CountryName":"Romania","Type of Animal":"Poultry"},"geometry":{"type":"Point","coordinates":[24.986393,44.730789]}},{"type":"Feature","properties":{"CountryName":"Romania","Type of Animal":"Poultry"},"geometry":{"type":"Point","coordinates":[27.096217,46.476338]}},{"type":"Feature","properties":{"CountryName":"Romania","Type of Animal":"Poultry"},"geometry":{"type":"Point","coordinates":[21.967491,47.161992]}},{"type":"Feature","properties":{"CountryName":"Romania","Type of Animal":"Poultry"},"geometry":{"type":"Point","coordinates":[26.867819,45.129531]}},{"type":"Feature","properties":{"CountryName":"Romania","Type of Animal":"Poultry"},"geometry":{"type":"Point","coordinates":[23.812391,46.850237]}},{"type":"Feature","properties":{"CountryName":"Romania","Type of Animal":"Poultry"},"geometry":{"type":"Point","coordinates":[27.416359,44.415483]}},{"type":"Feature","properties":{"CountryName":"Romania","Type of Animal":"Poultry"},"geometry":{"type":"Point","coordinates":[23.281711,44.997947]}},{"type":"Feature","properties":{"CountryName":"Romania","Type of Animal":"Poultry"},"geometry":{"type":"Point","coordinates":[22.737635,45.918037]}},{"type":"Feature","properties":{"CountryName":"Romania","Type of Animal":"Poultry"},"geometry":{"type":"Point","coordinates":[27.585327,44.633927]}},{"type":"Feature","properties":{"CountryName":"Romania","Type of Animal":"Poultry"},"geometry":{"type":"Point","coordinates":[27.318143,47.408247]}},{"type":"Feature","properties":{"CountryName":"Romania","Type of Animal":"Poultry"},"geometry":{"type":"Point","coordinates":[23.042475,47.798359]}},{"type":"Feature","properties":{"CountryName":"Romania","Type of Animal":"Poultry"},"geometry":{"type":"Point","coordinates":[28.699893,44.898485]}},{"type":"Feature","properties":{"CountryName":"Romania","Type of Animal":"Poultry"},"geometry":{"type":"Point","coordinates":[24.249551,44.763311]}},{"type":"Feature","properties":{"CountryName":"Romania","Type of Animal":"Poultry"},"geometry":{"type":"Point","coordinates":[27.564466,46.339853]}},{"type":"Feature","properties":{"CountryName":"Romania","Type of Animal":"Poultry"},"geometry":{"type":"Point","coordinates":[24.791761,44.544875]}},{"type":"Feature","properties":{"CountryName":"Romania","Type of Animal":"Poultry"},"geometry":{"type":"Point","coordinates":[26.894524,46.613623]}},{"type":"Feature","properties":{"CountryName":"Romania","Type of Animal":"Poultry"},"geometry":{"type":"Point","coordinates":[21.720756,46.987331]}},{"type":"Feature","properties":{"CountryName":"Romania","Type of Animal":"Poultry"},"geometry":{"type":"Point","coordinates":[27.512891,45.141184]}},{"type":"Feature","properties":{"CountryName":"Romania","Type of Animal":"Poultry"},"geometry":{"type":"Point","coordinates":[23.496831,46.858784]}},{"type":"Feature","properties":{"CountryName":"Romania","Type of Animal":"Poultry"},"geometry":{"type":"Point","coordinates":[25.365353,44.710034]}},{"type":"Feature","properties":{"CountryName":"Romania","Type of Animal":"Poultry"},"geometry":{"type":"Point","coordinates":[27.687135,45.747931]}},{"type":"Feature","properties":{"CountryName":"Romania","Type of Animal":"Poultry"},"geometry":{"type":"Point","coordinates":[22.895231,45.913895]}},{"type":"Feature","properties":{"CountryName":"Romania","Type of Animal":"Poultry"},"geometry":{"type":"Point","coordinates":[27.049896,47.221762]}},{"type":"Feature","properties":{"CountryName":"Romania","Type of Animal":"Poultry"},"geometry":{"type":"Point","coordinates":[23.170527,47.795641]}},{"type":"Feature","properties":{"CountryName":"Romania","Type of Animal":"Poultry"},"geometry":{"type":"Point","coordinates":[27.790535,46.321992]}},{"type":"Feature","properties":{"CountryName":"Romania","Type of Animal":"Poultry"},"geometry":{"type":"Point","coordinates":[24.764826,44.621765]}},{"type":"Feature","properties":{"CountryName":"Romania","Type of Animal":"Poultry"},"geometry":{"type":"Point","coordinates":[26.883907,46.698864]}},{"type":"Feature","properties":{"CountryName":"Romania","Type of Animal":"Poultry"},"geometry":{"type":"Point","coordinates":[21.721923,46.987571]}},{"type":"Feature","properties":{"CountryName":"Romania","Type of Animal":"Poultry"},"geometry":{"type":"Point","coordinates":[26.9623911,44.2256779]}},{"type":"Feature","properties":{"CountryName":"Romania","Type of Animal":"Poultry"},"geometry":{"type":"Point","coordinates":[21.720931,45.357332]}},{"type":"Feature","properties":{"CountryName":"Romania","Type of Animal":"Poultry"},"geometry":{"type":"Point","coordinates":[25.890751,44.606374]}},{"type":"Feature","properties":{"CountryName":"Romania","Type of Animal":"Poultry"},"geometry":{"type":"Point","coordinates":[27.151738,44.583037]}},{"type":"Feature","properties":{"CountryName":"Romania","Type of Animal":"Poultry"},"geometry":{"type":"Point","coordinates":[27.006049,47.223755]}},{"type":"Feature","properties":{"CountryName":"Romania","Type of Animal":"Poultry"},"geometry":{"type":"Point","coordinates":[22.954216,47.719557]}},{"type":"Feature","properties":{"CountryName":"Romania","Type of Animal":"Poultry"},"geometry":{"type":"Point","coordinates":[28.701671,44.897492]}},{"type":"Feature","properties":{"CountryName":"Romania","Type of Animal":"Poultry"},"geometry":{"type":"Point","coordinates":[24.950094,44.403579]}},{"type":"Feature","properties":{"CountryName":"Romania","Type of Animal":"Poultry"},"geometry":{"type":"Point","coordinates":[26.872338,46.619981]}},{"type":"Feature","properties":{"CountryName":"Romania","Type of Animal":"Poultry"},"geometry":{"type":"Point","coordinates":[23.820786,46.579057]}},{"type":"Feature","properties":{"CountryName":"Romania","Type of Animal":"Poultry"},"geometry":{"type":"Point","coordinates":[21.713546,45.360162]}},{"type":"Feature","properties":{"CountryName":"Romania","Type of Animal":"Poultry"},"geometry":{"type":"Point","coordinates":[28.553917,44.286756]}},{"type":"Feature","properties":{"CountryName":"Romania","Type of Animal":"Poultry"},"geometry":{"type":"Point","coordinates":[25.546302,44.605069]}},{"type":"Feature","properties":{"CountryName":"Romania","Type of Animal":"Poultry"},"geometry":{"type":"Point","coordinates":[23.941162,44.054175]}},{"type":"Feature","properties":{"CountryName":"Romania","Type of Animal":"Poultry"},"geometry":{"type":"Point","coordinates":[27.474121,45.974488]}},{"type":"Feature","properties":{"CountryName":"Romania","Type of Animal":"Poultry"},"geometry":{"type":"Point","coordinates":[22.864647,45.909034]}},{"type":"Feature","properties":{"CountryName":"Romania","Type of Animal":"Poultry"},"geometry":{"type":"Point","coordinates":[27.189792,44.563934]}},{"type":"Feature","properties":{"CountryName":"Romania","Type of Animal":"Poultry"},"geometry":{"type":"Point","coordinates":[24.535228,46.221153]}},{"type":"Feature","properties":{"CountryName":"Romania","Type of Animal":"Poultry"},"geometry":{"type":"Point","coordinates":[22.947397,47.858319]}},{"type":"Feature","properties":{"CountryName":"Romania","Type of Animal":"Poultry"},"geometry":{"type":"Point","coordinates":[24.7154483,44.9844024]}},{"type":"Feature","properties":{"CountryName":"Romania","Type of Animal":"Poultry"},"geometry":{"type":"Point","coordinates":[26.957843,46.587776]}},{"type":"Feature","properties":{"CountryName":"Romania","Type of Animal":"Poultry"},"geometry":{"type":"Point","coordinates":[21.800049,47.074795]}},{"type":"Feature","properties":{"CountryName":"Romania","Type of Animal":"Poultry"},"geometry":{"type":"Point","coordinates":[26.7037305,45.1682111]}},{"type":"Feature","properties":{"CountryName":"Romania","Type of Animal":"Poultry"},"geometry":{"type":"Point","coordinates":[21.607435,45.428453]}},{"type":"Feature","properties":{"CountryName":"Romania","Type of Animal":"Poultry"},"geometry":{"type":"Point","coordinates":[28.4696102,44.3429414]}},{"type":"Feature","properties":{"CountryName":"Romania","Type of Animal":"Poultry"},"geometry":{"type":"Point","coordinates":[25.836438,44.563421]}},{"type":"Feature","properties":{"CountryName":"Romania","Type of Animal":"Poultry"},"geometry":{"type":"Point","coordinates":[22.912942,45.914581]}},{"type":"Feature","properties":{"CountryName":"Romania","Type of Animal":"Poultry"},"geometry":{"type":"Point","coordinates":[27.265213,44.564411]}},{"type":"Feature","properties":{"CountryName":"Romania","Type of Animal":"Poultry"},"geometry":{"type":"Point","coordinates":[27.462521,47.184865]}},{"type":"Feature","properties":{"CountryName":"Romania","Type of Animal":"Poultry"},"geometry":{"type":"Point","coordinates":[26.240048,44.948881]}},{"type":"Feature","properties":{"CountryName":"Romania","Type of Animal":"Poultry"},"geometry":{"type":"Point","coordinates":[22.960432,47.821782]}},{"type":"Feature","properties":{"CountryName":"Romania","Type of Animal":"Poultry"},"geometry":{"type":"Point","coordinates":[26.886742,46.597367]}},{"type":"Feature","properties":{"CountryName":"Romania","Type of Animal":"Poultry"},"geometry":{"type":"Point","coordinates":[26.584911,45.026753]}},{"type":"Feature","properties":{"CountryName":"Romania","Type of Animal":"Poultry"},"geometry":{"type":"Point","coordinates":[23.394744,46.743435]}},{"type":"Feature","properties":{"CountryName":"Romania","Type of Animal":"Poultry"},"geometry":{"type":"Point","coordinates":[28.31215,44.430514]}},{"type":"Feature","properties":{"CountryName":"Romania","Type of Animal":"Poultry"},"geometry":{"type":"Point","coordinates":[25.328441,44.649994]}},{"type":"Feature","properties":{"CountryName":"Romania","Type of Animal":"Poultry"},"geometry":{"type":"Point","coordinates":[26.988721,47.230127]}},{"type":"Feature","properties":{"CountryName":"Romania","Type of Animal":"Poultry"},"geometry":{"type":"Point","coordinates":[25.939466,45.039168]}},{"type":"Feature","properties":{"CountryName":"Romania","Type of Animal":"Poultry"},"geometry":{"type":"Point","coordinates":[22.824446,47.773319]}},{"type":"Feature","properties":{"CountryName":"Romania","Type of Animal":"Poultry"},"geometry":{"type":"Point","coordinates":[26.763579,46.722744]}},{"type":"Feature","properties":{"CountryName":"Romania","Type of Animal":"Poultry"},"geometry":{"type":"Point","coordinates":[21.697797,45.360767]}},{"type":"Feature","properties":{"CountryName":"Romania","Type of Animal":"Poultry"},"geometry":{"type":"Point","coordinates":[25.902614,44.604063]}},{"type":"Feature","properties":{"CountryName":"Romania","Type of Animal":"Poultry"},"geometry":{"type":"Point","coordinates":[24.834528,46.769845]}},{"type":"Feature","properties":{"CountryName":"Romania","Type of Animal":"Poultry"},"geometry":{"type":"Point","coordinates":[26.009926,45.035373]}},{"type":"Feature","properties":{"CountryName":"Romania","Type of Animal":"Poultry"},"geometry":{"type":"Point","coordinates":[22.827942,47.773366]}},{"type":"Feature","properties":{"CountryName":"Romania","Type of Animal":"Poultry"},"geometry":{"type":"Point","coordinates":[26.770381,46.719449]}},{"type":"Feature","properties":{"CountryName":"Romania","Type of Animal":"Poultry"},"geometry":{"type":"Point","coordinates":[26.790618,44.830662]}},{"type":"Feature","properties":{"CountryName":"Romania","Type of Animal":"Poultry"},"geometry":{"type":"Point","coordinates":[23.953731,46.449822]}},{"type":"Feature","properties":{"CountryName":"Romania","Type of Animal":"Poultry"},"geometry":{"type":"Point","coordinates":[27.325298,44.226515]}},{"type":"Feature","properties":{"CountryName":"Romania","Type of Animal":"Poultry"},"geometry":{"type":"Point","coordinates":[26.681731,44.703354]}},{"type":"Feature","properties":{"CountryName":"Romania","Type of Animal":"Poultry"},"geometry":{"type":"Point","coordinates":[27.2921427,47.2254522]}},{"type":"Feature","properties":{"CountryName":"Romania","Type of Animal":"Poultry"},"geometry":{"type":"Point","coordinates":[24.325591,46.691191]}},{"type":"Feature","properties":{"CountryName":"Romania","Type of Animal":"Poultry"},"geometry":{"type":"Point","coordinates":[26.449418,46.916953]}},{"type":"Feature","properties":{"CountryName":"Romania","Type of Animal":"Poultry"},"geometry":{"type":"Point","coordinates":[26.034223,44.982023]}},{"type":"Feature","properties":{"CountryName":"Romania","Type of Animal":"Poultry"},"geometry":{"type":"Point","coordinates":[23.732838,46.064711]}},{"type":"Feature","properties":{"CountryName":"Romania","Type of Animal":"Poultry"},"geometry":{"type":"Point","coordinates":[24.675771,45.081638]}},{"type":"Feature","properties":{"CountryName":"Romania","Type of Animal":"Poultry"},"geometry":{"type":"Point","coordinates":[26.773283,46.726143]}},{"type":"Feature","properties":{"CountryName":"Romania","Type of Animal":"Poultry"},"geometry":{"type":"Point","coordinates":[25.516681,45.632381]}},{"type":"Feature","properties":{"CountryName":"Romania","Type of Animal":"Poultry"},"geometry":{"type":"Point","coordinates":[26.900671,45.113708]}},{"type":"Feature","properties":{"CountryName":"Romania","Type of Animal":"Poultry"},"geometry":{"type":"Point","coordinates":[27.264956,44.272359]}},{"type":"Feature","properties":{"CountryName":"Romania","Type of Animal":"Poultry"},"geometry":{"type":"Point","coordinates":[28.534793,44.348676]}},{"type":"Feature","properties":{"CountryName":"Romania","Type of Animal":"Poultry"},"geometry":{"type":"Point","coordinates":[25.225917,44.766194]}},{"type":"Feature","properties":{"CountryName":"Romania","Type of Animal":"Poultry"},"geometry":{"type":"Point","coordinates":[27.347676,44.727063]}},{"type":"Feature","properties":{"CountryName":"Romania","Type of Animal":"Poultry"},"geometry":{"type":"Point","coordinates":[27.099596,47.228437]}},{"type":"Feature","properties":{"CountryName":"Romania","Type of Animal":"Poultry"},"geometry":{"type":"Point","coordinates":[24.824652,46.770319]}},{"type":"Feature","properties":{"CountryName":"Romania","Type of Animal":"Poultry"},"geometry":{"type":"Point","coordinates":[25.988092,44.845463]}},{"type":"Feature","properties":{"CountryName":"Romania","Type of Animal":"Poultry"},"geometry":{"type":"Point","coordinates":[21.200924,45.568499]}},{"type":"Feature","properties":{"CountryName":"Romania","Type of Animal":"Poultry"},"geometry":{"type":"Point","coordinates":[24.783951,44.466773]}},{"type":"Feature","properties":{"CountryName":"Romania","Type of Animal":"Poultry"},"geometry":{"type":"Point","coordinates":[26.777148,46.717254]}},{"type":"Feature","properties":{"CountryName":"Romania","Type of Animal":"Poultry"},"geometry":{"type":"Point","coordinates":[25.560756,45.759456]}},{"type":"Feature","properties":{"CountryName":"Romania","Type of Animal":"Poultry"},"geometry":{"type":"Point","coordinates":[27.527471,44.233613]}},{"type":"Feature","properties":{"CountryName":"Romania","Type of Animal":"Poultry"},"geometry":{"type":"Point","coordinates":[28.5155555,44.39305555]}},{"type":"Feature","properties":{"CountryName":"Romania","Type of Animal":"Poultry"},"geometry":{"type":"Point","coordinates":[24.273159,46.412928]}},{"type":"Feature","properties":{"CountryName":"Romania","Type of Animal":"Poultry"},"geometry":{"type":"Point","coordinates":[26.010451,44.983677]}},{"type":"Feature","properties":{"CountryName":"Romania","Type of Animal":"Poultry"},"geometry":{"type":"Point","coordinates":[23.623854,46.122119]}},{"type":"Feature","properties":{"CountryName":"Romania","Type of Animal":"Poultry"},"geometry":{"type":"Point","coordinates":[25.054918,45.028954]}},{"type":"Feature","properties":{"CountryName":"Romania","Type of Animal":"Poultry"},"geometry":{"type":"Point","coordinates":[26.788312,46.658639]}},{"type":"Feature","properties":{"CountryName":"Romania","Type of Animal":"Poultry"},"geometry":{"type":"Point","coordinates":[27.251017,45.084982]}},{"type":"Feature","properties":{"CountryName":"Romania","Type of Animal":"Poultry"},"geometry":{"type":"Point","coordinates":[25.488939,45.778042]}},{"type":"Feature","properties":{"CountryName":"Romania","Type of Animal":"Poultry"},"geometry":{"type":"Point","coordinates":[28.6537361,44.426388]}},{"type":"Feature","properties":{"CountryName":"Romania","Type of Animal":"Poultry"},"geometry":{"type":"Point","coordinates":[24.733931,46.239268]}},{"type":"Feature","properties":{"CountryName":"Romania","Type of Animal":"Poultry"},"geometry":{"type":"Point","coordinates":[25.898685,45.079672]}},{"type":"Feature","properties":{"CountryName":"Romania","Type of Animal":"Poultry"},"geometry":{"type":"Point","coordinates":[27.540109,46.113911]}},{"type":"Feature","properties":{"CountryName":"Romania","Type of Animal":"Poultry"},"geometry":{"type":"Point","coordinates":[23.844237,46.173952]}},{"type":"Feature","properties":{"CountryName":"Romania","Type of Animal":"Poultry"},"geometry":{"type":"Point","coordinates":[24.684911,45.066987]}},{"type":"Feature","properties":{"CountryName":"Romania","Type of Animal":"Poultry"},"geometry":{"type":"Point","coordinates":[25.758659,45.654741]}},{"type":"Feature","properties":{"CountryName":"Romania","Type of Animal":"Poultry"},"geometry":{"type":"Point","coordinates":[26.514774,46.890218]}},{"type":"Feature","properties":{"CountryName":"Romania","Type of Animal":"Poultry"},"geometry":{"type":"Point","coordinates":[26.383511,44.852211]}},{"type":"Feature","properties":{"CountryName":"Romania","Type of Animal":"Poultry"},"geometry":{"type":"Point","coordinates":[25.637141,45.770115]}},{"type":"Feature","properties":{"CountryName":"Romania","Type of Animal":"Poultry"},"geometry":{"type":"Point","coordinates":[27.387625,44.213548]}},{"type":"Feature","properties":{"CountryName":"Romania","Type of Animal":"Poultry"},"geometry":{"type":"Point","coordinates":[23.278571,47.680274]}},{"type":"Feature","properties":{"CountryName":"Romania","Type of Animal":"Poultry"},"geometry":{"type":"Point","coordinates":[27.575761,46.745342]}},{"type":"Feature","properties":{"CountryName":"Romania","Type of Animal":"Poultry"},"geometry":{"type":"Point","coordinates":[25.442315,45.735453]}},{"type":"Feature","properties":{"CountryName":"Romania","Type of Animal":"Poultry"},"geometry":{"type":"Point","coordinates":[27.357088,44.415733]}},{"type":"Feature","properties":{"CountryName":"Romania","Type of Animal":"Poultry"},"geometry":{"type":"Point","coordinates":[28.239681,44.260198]}},{"type":"Feature","properties":{"CountryName":"Romania","Type of Animal":"Poultry"},"geometry":{"type":"Point","coordinates":[25.935838,45.043133]}},{"type":"Feature","properties":{"CountryName":"Romania","Type of Animal":"Poultry"},"geometry":{"type":"Point","coordinates":[22.8222823,47.781543]}},{"type":"Feature","properties":{"CountryName":"Romania","Type of Animal":"Poultry"},"geometry":{"type":"Point","coordinates":[25.451671,45.736096]}},{"type":"Feature","properties":{"CountryName":"Romania","Type of Animal":"Poultry"},"geometry":{"type":"Point","coordinates":[26.406088,44.277396]}},{"type":"Feature","properties":{"CountryName":"Romania","Type of Animal":"Poultry"},"geometry":{"type":"Point","coordinates":[26.682868,44.705941]}},{"type":"Feature","properties":{"CountryName":"Romania","Type of Animal":"Poultry"},"geometry":{"type":"Point","coordinates":[22.821448,47.773294]}},{"type":"Feature","properties":{"CountryName":"Romania","Type of Animal":"Poultry"},"geometry":{"type":"Point","coordinates":[28.131258,46.289498]}},{"type":"Feature","properties":{"CountryName":"Romania","Type of Animal":"Poultry"},"geometry":{"type":"Point","coordinates":[25.458378,45.734041]}},{"type":"Feature","properties":{"CountryName":"Romania","Type of Animal":"Poultry"},"geometry":{"type":"Point","coordinates":[26.321445,44.291931]}},{"type":"Feature","properties":{"CountryName":"Romania","Type of Animal":"Poultry"},"geometry":{"type":"Point","coordinates":[26.967461,44.761975]}},{"type":"Feature","properties":{"CountryName":"Romania","Type of Animal":"Poultry"},"geometry":{"type":"Point","coordinates":[23.036342,47.793817]}},{"type":"Feature","properties":{"CountryName":"Romania","Type of Animal":"Poultry"},"geometry":{"type":"Point","coordinates":[25.572419,45.699811]}},{"type":"Feature","properties":{"CountryName":"Romania","Type of Animal":"Poultry"},"geometry":{"type":"Point","coordinates":[26.388792,44.253122]}},{"type":"Feature","properties":{"CountryName":"Romania","Type of Animal":"Poultry"},"geometry":{"type":"Point","coordinates":[27.577023,47.296946]}},{"type":"Feature","properties":{"CountryName":"Romania","Type of Animal":"Poultry"},"geometry":{"type":"Point","coordinates":[22.303721,47.639083]}},{"type":"Feature","properties":{"CountryName":"Romania","Type of Animal":"Poultry"},"geometry":{"type":"Point","coordinates":[24.671271,45.090752]}},{"type":"Feature","properties":{"CountryName":"Romania","Type of Animal":"Poultry"},"geometry":{"type":"Point","coordinates":[27.357171,44.241517]}},{"type":"Feature","properties":{"CountryName":"Romania","Type of Animal":"Poultry"},"geometry":{"type":"Point","coordinates":[27.065649,47.227716]}},{"type":"Feature","properties":{"CountryName":"Romania","Type of Animal":"Poultry"},"geometry":{"type":"Point","coordinates":[25.461122,45.734572]}},{"type":"Feature","properties":{"CountryName":"Romania","Type of Animal":"Poultry"},"geometry":{"type":"Point","coordinates":[27.163898,44.447077]}},{"type":"Feature","properties":{"CountryName":"Romania","Type of Animal":"Poultry"},"geometry":{"type":"Point","coordinates":[25.364563,44.705349]}},{"type":"Feature","properties":{"CountryName":"Romania","Type of Animal":"Poultry"},"geometry":{"type":"Point","coordinates":[27.044988,47.221533]}},{"type":"Feature","properties":{"CountryName":"Romania","Type of Animal":"Poultry"},"geometry":{"type":"Point","coordinates":[25.427594,45.584733]}},{"type":"Feature","properties":{"CountryName":"Romania","Type of Animal":"Poultry"},"geometry":{"type":"Point","coordinates":[27.185894,44.432292]}},{"type":"Feature","properties":{"CountryName":"Romania","Type of Animal":"Poultry"},"geometry":{"type":"Point","coordinates":[24.752135,44.988869]}},{"type":"Feature","properties":{"CountryName":"Romania","Type of Animal":"Poultry"},"geometry":{"type":"Point","coordinates":[25.448892,45.735277]}},{"type":"Feature","properties":{"CountryName":"Romania","Type of Animal":"Poultry"},"geometry":{"type":"Point","coordinates":[23.805921,46.525375]}},{"type":"Feature","properties":{"CountryName":"Romania","Type of Animal":"Poultry"},"geometry":{"type":"Point","coordinates":[27.101162,44.214725]}},{"type":"Feature","properties":{"CountryName":"Romania","Type of Animal":"Poultry"},"geometry":{"type":"Point","coordinates":[26.935673,47.455987]}},{"type":"Feature","properties":{"CountryName":"Romania","Type of Animal":"Poultry"},"geometry":{"type":"Point","coordinates":[24.794046,46.773124]}},{"type":"Feature","properties":{"CountryName":"Romania","Type of Animal":"Poultry"},"geometry":{"type":"Point","coordinates":[26.872349,46.698382]}},{"type":"Feature","properties":{"CountryName":"Romania","Type of Animal":"Poultry"},"geometry":{"type":"Point","coordinates":[25.462953,45.770213]}},{"type":"Feature","properties":{"CountryName":"Romania","Type of Animal":"Poultry"},"geometry":{"type":"Point","coordinates":[27.217387,46.218262]}},{"type":"Feature","properties":{"CountryName":"Romania","Type of Animal":"Poultry"},"geometry":{"type":"Point","coordinates":[25.559411,45.763568]}},{"type":"Feature","properties":{"CountryName":"Romania","Type of Animal":"Poultry"},"geometry":{"type":"Point","coordinates":[27.247177,45.328925]}},{"type":"Feature","properties":{"CountryName":"Romania","Type of Animal":"Poultry"},"geometry":{"type":"Point","coordinates":[22.543468,47.576619]}},{"type":"Feature","properties":{"CountryName":"Romania","Type of Animal":"Poultry"},"geometry":{"type":"Point","coordinates":[21.560626,46.705633]}},{"type":"Feature","properties":{"CountryName":"Romania","Type of Animal":"Poultry"},"geometry":{"type":"Point","coordinates":[27.038117,45.006121]}},{"type":"Feature","properties":{"CountryName":"Romania","Type of Animal":"Poultry"},"geometry":{"type":"Point","coordinates":[28.41877698,44.2224602]}},{"type":"Feature","properties":{"CountryName":"Romania","Type of Animal":"Poultry"},"geometry":{"type":"Point","coordinates":[22.548195,47.575275]}},{"type":"Feature","properties":{"CountryName":"Romania","Type of Animal":"Poultry"},"geometry":{"type":"Point","coordinates":[22.345585,47.620122]}},{"type":"Feature","properties":{"CountryName":"Romania","Type of Animal":"Poultry"},"geometry":{"type":"Point","coordinates":[21.834599,46.817489]}},{"type":"Feature","properties":{"CountryName":"Romania","Type of Animal":"Poultry"},"geometry":{"type":"Point","coordinates":[26.833576,45.104641]}},{"type":"Feature","properties":{"CountryName":"Romania","Type of Animal":"Poultry"},"geometry":{"type":"Point","coordinates":[26.408859,44.277239]}},{"type":"Feature","properties":{"CountryName":"Romania","Type of Animal":"Poultry"},"geometry":{"type":"Point","coordinates":[26.197615,45.091236]}},{"type":"Feature","properties":{"CountryName":"Romania","Type of Animal":"Poultry"},"geometry":{"type":"Point","coordinates":[21.792146,45.680233]}},{"type":"Feature","properties":{"CountryName":"Romania","Type of Animal":"Poultry"},"geometry":{"type":"Point","coordinates":[27.284251,44.263965]}},{"type":"Feature","properties":{"CountryName":"Romania","Type of Animal":"Poultry"},"geometry":{"type":"Point","coordinates":[24.468819,46.477522]}},{"type":"Feature","properties":{"CountryName":"Romania","Type of Animal":"Poultry"},"geometry":{"type":"Point","coordinates":[21.791941,45.683298]}},{"type":"Feature","properties":{"CountryName":"Romania","Type of Animal":"Poultry"},"geometry":{"type":"Point","coordinates":[21.814246,46.808492]}},{"type":"Feature","properties":{"CountryName":"Romania","Type of Animal":"Poultry"},"geometry":{"type":"Point","coordinates":[27.363167,44.339964]}},{"type":"Feature","properties":{"CountryName":"Romania","Type of Animal":"Poultry"},"geometry":{"type":"Point","coordinates":[28.494961,44.255881]}},{"type":"Feature","properties":{"CountryName":"Romania","Type of Animal":"Poultry"},"geometry":{"type":"Point","coordinates":[20.920887,45.792499]}},{"type":"Feature","properties":{"CountryName":"Romania","Type of Animal":"Poultry"},"geometry":{"type":"Point","coordinates":[21.545911,46.718935]}},{"type":"Feature","properties":{"CountryName":"Romania","Type of Animal":"Poultry"},"geometry":{"type":"Point","coordinates":[21.599978,46.736531]}},{"type":"Feature","properties":{"CountryName":"Romania","Type of Animal":"Poultry"},"geometry":{"type":"Point","coordinates":[21.589841,46.708894]}},{"type":"Feature","properties":{"CountryName":"Romania","Type of Animal":"Poultry"},"geometry":{"type":"Point","coordinates":[27.333193,44.325431]}},{"type":"Feature","properties":{"CountryName":"Romania","Type of Animal":"Poultry"},"geometry":{"type":"Point","coordinates":[28.076752,44.595188]}},{"type":"Feature","properties":{"CountryName":"Romania","Type of Animal":"Poultry"},"geometry":{"type":"Point","coordinates":[21.545752,46.683157]}},{"type":"Feature","properties":{"CountryName":"Romania","Type of Animal":"Poultry"},"geometry":{"type":"Point","coordinates":[21.597442,46.710652]}},{"type":"Feature","properties":{"CountryName":"Romania","Type of Animal":"Poultry"},"geometry":{"type":"Point","coordinates":[27.205163,44.241518]}},{"type":"Feature","properties":{"CountryName":"Romania","Type of Animal":"Poultry"},"geometry":{"type":"Point","coordinates":[21.591316,46.708334]}},{"type":"Feature","properties":{"CountryName":"Romania","Type of Animal":"Poultry"},"geometry":{"type":"Point","coordinates":[21.630493,46.722747]}},{"type":"Feature","properties":{"CountryName":"Romania","Type of Animal":"Poultry"},"geometry":{"type":"Point","coordinates":[25.450791,45.741168]}},{"type":"Feature","properties":{"CountryName":"Romania","Type of Animal":"Poultry"},"geometry":{"type":"Point","coordinates":[25.422789,45.620946]}},{"type":"Feature","properties":{"CountryName":"Romania","Type of Animal":"Poultry"},"geometry":{"type":"Point","coordinates":[20.942243,45.995263]}},{"type":"Feature","properties":{"CountryName":"Romania","Type of Animal":"Poultry"},"geometry":{"type":"Point","coordinates":[20.521485,46.130557]}}]}